OBJECT_NAME,OBJECT_ID,EPOCH,MEAN_MOTION,ECCENTRICITY,INCLINATION,RA_OF_ASC_NODE,ARG_OF_PERICENTER,MEAN_ANOMALY,EPHEMERIS_TYPE,CLASSIFICATION_TYPE,NORAD_CAT_ID,ELEMENT_SET_NO,REV_AT_EPOCH,BSTAR,MEAN_MOTION_DOT,MEAN_MOTION_DDOT
FENGYUN 3D,2017-072A,2026-07-13T20:34:26.800896,14.19743445,.0001616,99.0135,169.7634,16.7072,343.4157,0,U,43010,999,44877,-.88609E-4,-.234E-5,0
NOAA 20 (JPSS-1),2017-073A,2026-07-13T20:33:30.327264,14.19516290,.0001337,98.7773,134.0829,125.7481,234.3819,0,U,43013,999,44825,.27535E-4,.14E-6,0
GOES 17,2018-022A,2026-07-13T14:45:02.606400,1.00271265,.000053,1.0025,85.2818,85.2007,252.7733,0,U,43226,999,3068,0,-.188E-5,0
SENTINEL-3B,2018-039A,2026-07-13T18:27:14.637024,14.26735895,.0001117,98.6237,261.9181,119.0737,241.0555,0,U,43437,999,42791,.9371E-5,-.21E-6,0
FENGYUN 2H,2018-050A,2026-07-13T21:01:33.705120,1.00267291,.0002304,3.0966,78.7532,133.9180,113.6184,0,U,43491,999,2970,0,-.135E-5,0
METOP-C,2018-087A,2026-07-13T19:33:52.718400,14.21518811,.0002215,98.6631,253.9302,95.6697,264.4733,0,U,43689,999,39861,.43438E-4,.52E-6,0
GEO-KOMPSAT-2A,2018-100A,2026-07-13T20:55:04.867968,1.00270353,.0001938,0.0274,110.5569,351.2545,271.9635,0,U,43823,999,2789,0,-.349E-5,0
METEOR-M2 2,2019-038A,2026-07-13T20:49:46.621344,14.24373060,.0000818,98.9153,182.5484,5.7679,354.3509,0,U,44387,999,36509,.68657E-4,.113E-5,0
ARKTIKA-M 1,2021-016A,2026-07-07T10:17:34.884672,2.00614486,.72950864,63.2524,54.6812,270.0380,14.5466,0,U,47719,999,3919,0,-.257E-5,0
FENGYUN 3E,2021-062A,2026-07-13T21:48:26.669664,14.19906570,.0002294,98.7497,198.0188,41.9781,318.1571,0,U,49008,999,26037,.3739E-4,.35E-6,0
GOES 18,2022-021A,2026-07-13T17:56:48.769152,1.00270049,.0000393,0.0178,129.3081,66.4744,228.0381,0,U,51850,999,685,0,.92E-6,0
NOAA 21 (JPSS-2),2022-150A,2026-07-13T19:38:32.786592,14.19540894,.0002795,98.7060,133.1604,107.0369,253.1113,0,U,54234,999,19032,.15547E-4,-.11E-6,0
METEOSAT-12 (MTG-I1),2022-170C,2026-07-13T20:18:22.582080,1.00267371,.0003776,0.7236,19.4807,82.3879,134.1395,0,U,54743,999,1324,0,-.14E-6,0
TIANMU-1 03,2023-039A,2026-07-13T19:37:31.156608,15.48017462,.0002699,97.5234,9.8454,30.8264,329.3144,0,U,55973,999,18495,.17644E-3,.913E-4,0
TIANMU-1 04,2023-039B,2026-07-13T19:07:15.047616,15.48641235,.0003142,97.5170,8.9794,18.5456,341.5908,0,U,55974,999,18496,.17642E-3,.9331E-4,0
TIANMU-1 05,2023-039C,2026-07-13T19:11:42.281088,15.47941221,.0003079,97.5217,9.4317,49.4675,310.6843,0,U,55975,999,18493,.18251E-3,.9423E-4,0
TIANMU-1 06,2023-039D,2026-07-13T19:14:34.968768,15.48538532,.0003183,97.5224,10.0966,41.2203,318.9287,0,U,55976,999,18496,.18398E-3,.97E-4,0
FENGYUN 3G,2023-055A,2026-07-13T13:08:47.792832,15.53737121,.0007107,49.9903,210.0779,48.3295,311.8279,0,U,56232,999,18410,.20712E-3,.13096E-3,0
METEOR-M2 3,2023-091A,2026-07-13T20:50:28.360320,14.24048848,.0005148,98.6069,249.2988,93.2684,266.9084,0,U,57166,999,15831,.17502E-4,-.3E-7,0
TIANMU-1 07,2023-101A,2026-07-13T20:24:13.222656,15.30105993,.000383,97.2581,244.9087,67.4288,292.7358,0,U,57399,999,16572,.12925E-3,.3692E-4,0
TIANMU-1 08,2023-101B,2026-07-13T21:10:15.206880,15.30110058,.000473,97.2569,244.7068,49.9965,310.1691,0,U,57400,999,16572,.13171E-3,.3764E-4,0
TIANMU-1 09,2023-101C,2026-07-13T20:45:28.825344,15.30150599,.0004431,97.2527,244.0921,67.7763,292.3948,0,U,57401,999,16572,.13342E-3,.3819E-4,0
TIANMU-1 10,2023-101D,2026-07-13T19:59:34.677600,15.30123963,.0005762,97.2607,245.1387,58.0730,302.1071,0,U,57402,999,16571,.13558E-3,.3879E-4,0
FENGYUN 3F,2023-111A,2026-07-13T19:42:53.415648,14.19943286,.0001301,98.6826,264.3325,76.9124,283.2198,0,U,57490,999,15264,.24982E-4,.1E-6,0
ARKTIKA-M 2,2023-198A,2026-07-13T16:18:35.342208,2.00608438,.6910233,63.2184,151.4001,267.3448,18.7378,0,U,58584,999,1885,0,.137E-5,0
TIANMU-1 11,2023-205A,2026-07-13T20:28:20.521920,15.27255875,.0006765,97.3441,215.9949,268.1164,91.9301,0,U,58645,999,14159,.12216E-3,.319E-4,0
TIANMU-1 12,2023-205B,2026-07-13T19:48:23.029056,15.27087058,.00057,97.3429,215.7151,240.6641,119.4029,0,U,58646,999,14157,.12736E-3,.3311E-4,0
TIANMU-1 13,2023-205C,2026-07-13T20:36:31.831200,15.27079874,.0005658,97.3457,216.0275,217.8478,142.2364,0,U,58647,999,14157,.12664E-3,.3292E-4,0
TIANMU-1 14,2023-205D,2026-07-13T20:14:06.707616,15.27123734,.0006301,97.3393,215.1731,225.8589,134.2133,0,U,58648,999,14157,.1268E-3,.3301E-4,0
TIANMU-1 19,2023-208A,2026-07-13T20:59:26.196864,15.31963316,.0004458,97.4527,311.3204,203.2893,156.8148,0,U,58660,999,14141,.1614E-3,.4902E-4,0
TIANMU-1 20,2023-208B,2026-07-13T19:50:04.324416,15.33151240,.0006215,97.4468,311.9350,217.3958,142.6852,0,U,58661,999,14150,.15006E-3,.4727E-4,0
