FENGYUN 3D              
1 43010U 17072A   26194.85725464 -.00000234  00000+0 -88609-4 0  9993
2 43010  99.0135 169.7634 0001616  16.7072 343.4157 14.19743445448779
NOAA 20 (JPSS-1)        
1 43013U 17073A   26194.85660101  .00000014  00000+0  27535-4 0  9998
2 43013  98.7773 134.0829 0001337 125.7481 234.3819 14.19516290448254
GOES 17                 
1 43226U 18022A   26194.61461350 -.00000188  00000+0  00000+0 0  9994
2 43226   1.0025  85.2818 0000530  85.2007 252.7733  1.00271265 30689
SENTINEL-3B             
1 43437U 18039A   26194.76891941 -.00000021  00000+0  93710-5 0  9997
2 43437  98.6237 261.9181 0001117 119.0737 241.0555 14.26735895427919
FENGYUN 2H              
1 43491U 18050A   26194.87608455 -.00000135  00000+0  00000+0 0  9998
2 43491   3.0966  78.7532 0002304 133.9180 113.6184  1.00267291 29703
METOP-C                 
1 43689U 18087A   26194.81519350  .00000052  00000+0  43438-4 0  9990
2 43689  98.6631 253.9302 0002215  95.6697 264.4733 14.21518811398619
GEO-KOMPSAT-2A          
1 43823U 18100A   26194.87158412 -.00000349  00000+0  00000+0 0  9993
2 43823   0.0274 110.5569 0001938 351.2545 271.9635  1.00270353 27898
METEOR-M2 2             
1 44387U 19038A   26194.86790071  .00000113  00000+0  68657-4 0  9997
2 44387  98.9153 182.5484 0000818   5.7679 354.3509 14.24373060365098
ARKTIKA-M 1             
1 47719U 21016A   26188.42887598 -.00000257  00000+0  00000+0 0  9997
2 47719  63.2524  54.6812 7295086 270.0380  14.5466  2.00614486 39194
FENGYUN 3E              
1 49008U 21062A   26194.90864201  .00000035  00000+0  37390-4 0  9997
2 49008  98.7497 198.0188 0002294  41.9781 318.1571 14.19906570260375
GOES 18                 
1 51850U 22021A   26194.74778668  .00000092  00000+0  00000+0 0  9990
2 51850   0.0178 129.3081 0000393  66.4744 228.0381  1.00270049  6853
NOAA 21 (JPSS-2)        
1 54234U 22150A   26194.81843503 -.00000011  00000+0  15547-4 0  9990
2 54234  98.7060 133.1604 0002795 107.0369 253.1113 14.19540894190323
METEOSAT-12 (MTG-I1)    
1 54743U 22170C   26194.84609470 -.00000014  00000+0  00000+0 0  9999
2 54743   0.7236  19.4807 0003776  82.3879 134.1395  1.00267371 13245
TIANMU-1 03             
1 55973U 23039A   26194.81772172  .00009130  00000+0  17644-3 0  9990
2 55973  97.5234   9.8454 0002699  30.8264 329.3144 15.48017462184951
TIANMU-1 04             
1 55974U 23039B   26194.79670194  .00009331  00000+0  17642-3 0  9990
2 55974  97.5170   8.9794 0003142  18.5456 341.5908 15.48641235184964
TIANMU-1 05             
1 55975U 23039C   26194.79979492  .00009423  00000+0  18251-3 0  9993
2 55975  97.5217   9.4317 0003079  49.4675 310.6843 15.47941221184938
TIANMU-1 06             
1 55976U 23039D   26194.80179362  .00009700  00000+0  18398-3 0  9994
2 55976  97.5224  10.0966 0003183  41.2203 318.9287 15.48538532184962
FENGYUN 3G              
1 56232U 23055A   26194.54777538  .00013096  00000+0  20712-3 0  9994
2 56232  49.9903 210.0779 0007107  48.3295 311.8279 15.53737121184106
METEOR-M2 3             
1 57166U 23091A   26194.86838380 -.00000003  00000+0  17502-4 0  9998
2 57166  98.6069 249.2988 0005148  93.2684 266.9084 14.24048848158313
TIANMU-1 07             
1 57399U 23101A   26194.85015304  .00003692  00000+0  12925-3 0  9999
2 57399  97.2581 244.9087 0003830  67.4288 292.7358 15.30105993165723
TIANMU-1 08             
1 57400U 23101B   26194.88212045  .00003764  00000+0  13171-3 0  9990
2 57400  97.2569 244.7068 0004730  49.9965 310.1691 15.30110058165729
TIANMU-1 09             
1 57401U 23101C   26194.86491696  .00003819  00000+0  13342-3 0  9991
2 57401  97.2527 244.0921 0004431  67.7763 292.3948 15.30150599165727
TIANMU-1 10             
1 57402U 23101D   26194.83304025  .00003879  00000+0  13558-3 0  9993
2 57402  97.2607 245.1387 0005762  58.0730 302.1071 15.30123963165711
FENGYUN 3F              
1 57490U 23111A   26194.82145157  .00000010  00000+0  24982-4 0  9997
2 57490  98.6826 264.3325 0001301  76.9124 283.2198 14.19943286152643
ARKTIKA-M 2             
1 58584U 23198A   26194.67957572  .00000137  00000+0  00000+0 0  9992
2 58584  63.2184 151.4001 6910233 267.3448  18.7378  2.00608438 18853
TIANMU-1 11             
1 58645U 23205A   26194.85301530  .00003190  00000+0  12216-3 0  9994
2 58645  97.3441 215.9949 0006765 268.1164  91.9301 15.27255875141599
TIANMU-1 12             
1 58646U 23205B   26194.82526654  .00003311  00000+0  12736-3 0  9990
2 58646  97.3429 215.7151 0005700 240.6641 119.4029 15.27087058141579
TIANMU-1 13             
1 58647U 23205C   26194.85870175  .00003292  00000+0  12664-3 0  9992
2 58647  97.3457 216.0275 0005658 217.8478 142.2364 15.27079874141571
TIANMU-1 14             
1 58648U 23205D   26194.84313319  .00003301  00000+0  12680-3 0  9993
2 58648  97.3393 215.1731 0006301 225.8589 134.2133 15.27123734141576
TIANMU-1 19             
1 58660U 23208A   26194.87460876  .00004902  00000+0  16140-3 0  9997
2 58660  97.4527 311.3204 0004458 203.2893 156.8148 15.31963316141415
TIANMU-1 20             
1 58661U 23208B   26194.82643894  .00004727  00000+0  15006-3 0  9991
2 58661  97.4468 311.9350 0006215 217.3958 142.6852 15.33151240141501
